[{"OBJECT_NAME":"STARLINK-33796","OBJECT_ID":"2025-071Y","EPOCH":"2026-03-09T10:28:32.392128","MEAN_MOTION":15.30196497,"ECCENTRICITY":0.00014628,"INCLINATION":53.1582,"RA_OF_ASC_NODE":140.8843,"ARG_OF_PERICENTER":84.6787,"MEAN_ANOMALY":275.4381,"EPHEMERIS_TYPE":0,"CLASSIFICATION_TYPE":"U","NORAD_CAT_ID":63515,"ELEMENT_SET_NO":999,"REV_AT_EPOCH":5273,"BSTAR":0.0018412911,"MEAN_MOTION_DOT":0.0005457,"MEAN_MOTION_DDOT":0},{"OBJECT_NAME":"GEOSCAN 3 (RS92S3)","OBJECT_ID":"2025-155T","EPOCH":"2026-03-09T22:52:10.587648","MEAN_MOTION":15.31696739,"ECCENTRICITY":0.00068078,"INCLINATION":97.4455,"RA_OF_ASC_NODE":37.9971,"ARG_OF_PERICENTER":154.1387,"MEAN_ANOMALY":206.0196,"EPHEMERIS_TYPE":0,"CLASSIFICATION_TYPE":"U","NORAD_CAT_ID":64893,"ELEMENT_SET_NO":999,"REV_AT_EPOCH":6564,"BSTAR":0.00078414081,"MEAN_MOTION_DOT":0.00023985,"MEAN_MOTION_DDOT":0}]
